ONEWEB-0670             
1 55829U 23029AK  23285.94730626  .00000139  00000+0  34105-3 0  9990
2 55829  87.8969 124.4417 0002416  82.8187 277.3218 13.14498011 30913
ONEWEB-0671             
1 55830U 23029AL  23286.33014871  .00000012  00000+0 -28705-5 0  9995
2 55830  87.9216 139.6001 0002085  78.4288 281.7079 13.19725540 30619
ONEWEB-0672             
1 55831U 23029AM  23286.58334491  .00000015  00000+0  00000+0 0  9990
2 55831  87.5709 109.3572 0002500  55.5999  21.7803 13.61061284 32734
ONEWEB-0673             
1 55832U 23029AN  23285.85156232  .00000268  00000+0  63699-3 0  9992
2 55832  87.9111 139.7193 0002044  74.3532 285.7826 13.19726691 29867
ONEWEB-0674             
1 55833U 23029AP  23285.83312943 -.00000039  00000+0 -14065-3 0  9995
2 55833  87.8961 124.4790 0002388  88.3555 271.7848 13.14500455 30881
ONEWEB-0675             
1 55834U 23029AQ  23286.09480097  .00000341  00000+0  82024-3 0  9995
2 55834  87.9132 139.6503 0001288  68.8076 291.3195 13.19724798 30620
ONEWEB-0720             
1 55835U 23029AR  23285.85944493  .00000161  00000+0  37040-3 0  9992
2 55835  87.9120 139.7019 0002094  66.4872 293.6480 13.19727652 29807
ONEWEB-0537             
1 56046U 23043A   23286.58334491 -.01307786  00000+0 -57455+0 0  9999
2 56046  87.2809  65.5456 0002790 354.1373 135.2963 14.27287962 30956
